{"fetched_at":"2026-07-08T17:59:42.139Z","source":"https://celestrak.org/NORAD/elements/gp.php?NAME=EROS&FORMAT=JSON","constellation":"eros","records":[{"OBJECT_NAME":"EROS C3","OBJECT_ID":"2022-179A","EPOCH":"2026-07-08T12:07:04.507392","CLASSIFICATION_TYPE":"U","MEAN_MOTION":15.10994443,"ECCENTRICITY":0.0006247,"INCLINATION":139.3345,"RA_OF_ASC_NODE":126.6781,"ARG_OF_PERICENTER":128.8948,"MEAN_ANOMALY":231.2417,"EPHEMERIS_TYPE":0,"NORAD_CAT_ID":54880,"ELEMENT_SET_NO":999,"REV_AT_EPOCH":19555,"BSTAR":0.00017422,"MEAN_MOTION_DOT":0.00003205,"MEAN_MOTION_DDOT":0}]}
