EROS C3                 
1 54880U 22179A   26189.50491328  .00003205  00000+0  17422-3 0  9992
2 54880 139.3345 126.6781 0006247 128.8948 231.2417 15.10994443195550
